start=new Date('2021-09-28T00:00:00.000Z').valueOf();
sats=[{"CLASSIFICATION_TYPE":"U","PERIAPSIS":"357.068","APOAPSIS":"361.824","SITE":"AFWTR","TLE_LINE1":"1 49141U 21082M   21270.91668981 -.00098326  00000-0 -82947-3 0  9995","OBJECT_TYPE":"PAYLOAD","RA_OF_ASC_NODE":"88.1048","GP_ID":"185645732","MEAN_ANOMALY":"242.2753","REV_AT_EPOCH":"347","MEAN_MOTION_DDOT":"0.0000000000000","FILE":"3131420","CENTER_NAME":"EARTH","PERIOD":"91.731","COUNTRY_CODE":"US","OBJECT_ID":"2021-082M","ELEMENT_SET_NO":"999","INCLINATION":"70.0002","RCS_SIZE":"LARGE","REF_FRAME":"TEME","MEAN_MOTION":"15.69808864","NORAD_CAT_ID":"49141","DECAY_DATE":null,"TIME_SYSTEM":"UTC","ECCENTRICITY":"0.00035290","EPHEMERIS_TYPE":"0","OBJECT_NAME":"STARLINK-3093","MEAN_MOTION_DOT":"-0.00098326","BSTAR":"-0.00082947000000","TLE_LINE2":"2 49141  70.0002  88.1048 0003529 275.2138 242.2753 15.69808864  3470","MEAN_ELEMENT_THEORY":"SGP4","EPOCH":"2021-09-27T22:00:01.999584","SEMIMAJOR_AXIS":"6737.581","LAUNCH_DATE":"2021-09-14","ARG_OF_PERICENTER":"275.2138"},{"FILE":"3131420","CENTER_NAME":"EARTH","REV_AT_EPOCH":"226","MEAN_ANOMALY":"240.7121","MEAN_MOTION_DDOT":"0.0000000000000","INCLINATION":"70.0002","RCS_SIZE":"LARGE","COUNTRY_CODE":"US","PERIOD":"91.727","ELEMENT_SET_NO":"999","OBJECT_ID":"2021-082N","SITE":"AFWTR","OBJECT_TYPE":"PAYLOAD","TLE_LINE1":"1 49142U 21082N   21270.91668981 -.00198945  00000-0 -16954-2 0  9998","RA_OF_ASC_NODE":"88.0998","APOAPSIS":"361.671","PERIAPSIS":"356.832","CLASSIFICATION_TYPE":"U","GP_ID":"185646073","EPOCH":"2021-09-27T22:00:01.999584","SEMIMAJOR_AXIS":"6737.386","BSTAR":"-0.00169540000000","TLE_LINE2":"2 49142  70.0002  88.0998 0003591 280.9943 240.7121 15.69876897  2269","MEAN_ELEMENT_THEORY":"SGP4","LAUNCH_DATE":"2021-09-14","ARG_OF_PERICENTER":"280.9943","NORAD_CAT_ID":"49142","MEAN_MOTION":"15.69876897","REF_FRAME":"TEME","MEAN_MOTION_DOT":"-0.00198945","EPHEMERIS_TYPE":"0","TIME_SYSTEM":"UTC","DECAY_DATE":null,"ECCENTRICITY":"0.00035910","OBJECT_NAME":"STARLINK-3042"},{"APOAPSIS":"361.520","PERIAPSIS":"356.730","CLASSIFICATION_TYPE":"U","SITE":"AFWTR","TLE_LINE1":"1 49143U 21082P   21270.91668981 -.00261482  00000-0 -22413-2 0  9993","OBJECT_TYPE":"PAYLOAD","RA_OF_ASC_NODE":"88.0974","GP_ID":"185646077","MEAN_ANOMALY":"244.8294","REV_AT_EPOCH":"226","MEAN_MOTION_DDOT":"0.0000000000000","FILE":"3131420","CENTER_NAME":"EARTH","COUNTRY_CODE":"US","PERIOD":"91.724","OBJECT_ID":"2021-082P","ELEMENT_SET_NO":"999","INCLINATION":"70.0001","RCS_SIZE":"MEDIUM","NORAD_CAT_ID":"49143","MEAN_MOTION":"15.69921124","REF_FRAME":"TEME","EPHEMERIS_TYPE":"0","ECCENTRICITY":"0.00035550","DECAY_DATE":null,"TIME_SYSTEM":"UTC","OBJECT_NAME":"STARLINK-3109","MEAN_MOTION_DOT":"-0.00261482","BSTAR":"-0.00224130000000","TLE_LINE2":"2 49143  70.0001  88.0974 0003555 278.9792 244.8294 15.69921124  2262","MEAN_ELEMENT_THEORY":"SGP4","EPOCH":"2021-09-27T22:00:01.999584","SEMIMAJOR_AXIS":"6737.260","LAUNCH_DATE":"2021-09-14","ARG_OF_PERICENTER":"278.9792"},{"ECCENTRICITY":"0.00035630","DECAY_DATE":null,"TIME_SYSTEM":"UTC","EPHEMERIS_TYPE":"0","OBJECT_NAME":"STARLINK-3100","MEAN_MOTION_DOT":"-0.00404947","REF_FRAME":"TEME","NORAD_CAT_ID":"49144","MEAN_MOTION":"15.70028442","LAUNCH_DATE":"2021-09-14","ARG_OF_PERICENTER":"279.4533","MEAN_ELEMENT_THEORY":"SGP4","TLE_LINE2":"2 49144  70.0001  88.0924 0003563 279.4533 248.5459 15.70028442  2500","BSTAR":"-0.00351530000000","EPOCH":"2021-09-27T22:00:01.999584","SEMIMAJOR_AXIS":"6736.953","GP_ID":"185669496","CLASSIFICATION_TYPE":"U","PERIAPSIS":"356.417","APOAPSIS":"361.218","SITE":"AFWTR","TLE_LINE1":"1 49144U 21082Q   21270.91668981 -.00404947  00000-0 -35153-2 0  9994","RA_OF_ASC_NODE":"88.0924","OBJECT_TYPE":"PAYLOAD","COUNTRY_CODE":"US","PERIOD":"91.718","ELEMENT_SET_NO":"999","OBJECT_ID":"2021-082Q","INCLINATION":"70.0001","RCS_SIZE":"LARGE","REV_AT_EPOCH":"250","MEAN_ANOMALY":"248.5459","MEAN_MOTION_DDOT":"0.0000000000000","FILE":"3131463","CENTER_NAME":"EARTH"},{"FILE":"3131463","CENTER_NAME":"EARTH","MEAN_ANOMALY":"252.9152","REV_AT_EPOCH":"250","MEAN_MOTION_DDOT":"0.0000000000000","INCLINATION":"70.0001","RCS_SIZE":"LARGE","PERIOD":"91.711","COUNTRY_CODE":"US","ELEMENT_SET_NO":"999","OBJECT_ID":"2021-082R","SITE":"AFWTR","RA_OF_ASC_NODE":"88.0875","TLE_LINE1":"1 49145U 21082R   21270.91668981 -.00559832  00000-0 -49237-2 0  9997","OBJECT_TYPE":"PAYLOAD","APOAPSIS":"360.850","CLASSIFICATION_TYPE":"U","PERIAPSIS":"356.061","GP_ID":"185669605","EPOCH":"2021-09-27T22:00:01.999584","SEMIMAJOR_AXIS":"6736.590","TLE_LINE2":"2 49145  70.0001  88.0875 0003554 279.2569 252.9152 15.70155086  2507","MEAN_ELEMENT_THEORY":"SGP4","BSTAR":"-0.00492370000000","LAUNCH_DATE":"2021-09-14","ARG_OF_PERICENTER":"279.2569","MEAN_MOTION":"15.70155086","NORAD_CAT_ID":"49145","REF_FRAME":"TEME","MEAN_MOTION_DOT":"-0.00559832","EPHEMERIS_TYPE":"0","ECCENTRICITY":"0.00035540","DECAY_DATE":null,"TIME_SYSTEM":"UTC","OBJECT_NAME":"STARLINK-3119"},{"PERIOD":"91.714","COUNTRY_CODE":"US","ELEMENT_SET_NO":"999","OBJECT_ID":"2021-082S","INCLINATION":"70.0001","RCS_SIZE":"LARGE","MEAN_ANOMALY":"250.4249","REV_AT_EPOCH":"250","MEAN_MOTION_DDOT":"0.0000000000000","FILE":"3131463","CENTER_NAME":"EARTH","GP_ID":"185669820","APOAPSIS":"361.043","CLASSIFICATION_TYPE":"U","PERIAPSIS":"356.239","SITE":"AFWTR","TLE_LINE1":"1 49146U 21082S   21270.91668981 -.00482446  00000-0 -42158-2 0  9999","OBJECT_TYPE":"PAYLOAD","RA_OF_ASC_NODE":"88.0899","LAUNCH_DATE":"2021-09-14","ARG_OF_PERICENTER":"279.6627","MEAN_ELEMENT_THEORY":"SGP4","TLE_LINE2":"2 49146  70.0001  88.0899 0003566 279.6627 250.4249 15.70090239  2504","BSTAR":"-0.00421580000000","EPOCH":"2021-09-27T22:00:01.999584","SEMIMAJOR_AXIS":"6736.776","EPHEMERIS_TYPE":"0","DECAY_DATE":null,"ECCENTRICITY":"0.00035660","TIME_SYSTEM":"UTC","OBJECT_NAME":"STARLINK-3116","MEAN_MOTION_DOT":"-0.00482446","NORAD_CAT_ID":"49146","MEAN_MOTION":"15.70090239","REF_FRAME":"TEME"},{"RCS_SIZE":"LARGE","INCLINATION":"70.0001","ELEMENT_SET_NO":"999","OBJECT_ID":"2021-082T","PERIOD":"91.721","COUNTRY_CODE":"US","CENTER_NAME":"EARTH","FILE":"3131211","MEAN_MOTION_DDOT":"0.0000000000000","MEAN_ANOMALY":"246.7567","REV_AT_EPOCH":"343","GP_ID":"185640510","TLE_LINE1":"1 49147U 21082T   21270.91668981 -.00331036  00000-0 -28552-2 0  9990","RA_OF_ASC_NODE":"88.0949","OBJECT_TYPE":"PAYLOAD","SITE":"AFWTR","APOAPSIS":"361.392","CLASSIFICATION_TYPE":"U","PERIAPSIS":"356.566","ARG_OF_PERICENTER":"279.1494","LAUNCH_DATE":"2021-09-14","SEMIMAJOR_AXIS":"6737.114","EPOCH":"2021-09-27T22:00:01.999584","BSTAR":"-0.00285520000000","TLE_LINE2":"2 49147  70.0001  88.0949 0003582 279.1494 246.7567 15.69972030  3436","MEAN_ELEMENT_THEORY":"SGP4","MEAN_MOTION_DOT":"-0.00331036","OBJECT_NAME":"STARLINK-3071","EPHEMERIS_TYPE":"0","DECAY_DATE":null,"TIME_SYSTEM":"UTC","ECCENTRICITY":"0.00035820","MEAN_MOTION":"15.69972030","NORAD_CAT_ID":"49147","REF_FRAME":"TEME"},{"INCLINATION":"70.0001","RCS_SIZE":"LARGE","PERIOD":"91.703","COUNTRY_CODE":"US","OBJECT_ID":"2021-082U","ELEMENT_SET_NO":"999","FILE":"3131463","CENTER_NAME":"EARTH","REV_AT_EPOCH":"250","MEAN_ANOMALY":"253.6785","MEAN_MOTION_DDOT":"0.0000000000000","GP_ID":"185669173","SITE":"AFWTR","TLE_LINE1":"1 49148U 21082U   21270.91668981 -.00711675  00000-0 -63360-2 0  9998","OBJECT_TYPE":"PAYLOAD","RA_OF_ASC_NODE":"88.0825","PERIAPSIS":"355.648","CLASSIFICATION_TYPE":"U","APOAPSIS":"360.469","LAUNCH_DATE":"2021-09-14","ARG_OF_PERICENTER":"282.6496","EPOCH":"2021-09-27T22:00:01.999584","SEMIMAJOR_AXIS":"6736.193","BSTAR":"-0.00633600000000","TLE_LINE2":"2 49148  70.0001  88.0825 0003579 282.6496 253.6785 15.70293883  2507","MEAN_ELEMENT_THEORY":"SGP4","MEAN_MOTION_DOT":"-0.00711675","TIME_SYSTEM":"UTC","DECAY_DATE":null,"ECCENTRICITY":"0.00035790","EPHEMERIS_TYPE":"0","OBJECT_NAME":"STARLINK-3048","REF_FRAME":"TEME","NORAD_CAT_ID":"49148","MEAN_MOTION":"15.70293883"},{"EPOCH":"2021-09-27T22:00:01.999584","SEMIMAJOR_AXIS":"6736.395","TLE_LINE2":"2 49149  70.0001  88.0850 0003529 279.7648 254.4873 15.70223461  2509","MEAN_ELEMENT_THEORY":"SGP4","BSTAR":"-0.00563760000000","LAUNCH_DATE":"2021-09-14","ARG_OF_PERICENTER":"279.7648","MEAN_MOTION":"15.70223461","NORAD_CAT_ID":"49149","REF_FRAME":"TEME","MEAN_MOTION_DOT":"-0.00636984","EPHEMERIS_TYPE":"0","DECAY_DATE":null,"TIME_SYSTEM":"UTC","ECCENTRICITY":"0.00035290","OBJECT_NAME":"STARLINK-3053","FILE":"3131463","CENTER_NAME":"EARTH","MEAN_ANOMALY":"254.4873","REV_AT_EPOCH":"250","MEAN_MOTION_DDOT":"0.0000000000000","INCLINATION":"70.0001","RCS_SIZE":"LARGE","COUNTRY_CODE":"US","PERIOD":"91.707","ELEMENT_SET_NO":"999","OBJECT_ID":"2021-082V","SITE":"AFWTR","TLE_LINE1":"1 49149U 21082V   21270.91668981 -.00636984  00000-0 -56376-2 0  9997","OBJECT_TYPE":"PAYLOAD","RA_OF_ASC_NODE":"88.0850","APOAPSIS":"360.637","CLASSIFICATION_TYPE":"U","PERIAPSIS":"355.883","GP_ID":"185669281"},{"EPHEMERIS_TYPE":"0","DECAY_DATE":null,"TIME_SYSTEM":"UTC","ECCENTRICITY":"0.00035130","OBJECT_NAME":"STARLINK-3104","MEAN_MOTION_DOT":"-0.00844605","NORAD_CAT_ID":"49150","MEAN_MOTION":"15.70434180","REF_FRAME":"TEME","LAUNCH_DATE":"2021-09-14","ARG_OF_PERICENTER":"281.2414","TLE_LINE2":"2 49150  70.0001  88.0776 0003513 281.2414 259.2290 15.70434180  2508","BSTAR":"-0.00759600000000","MEAN_ELEMENT_THEORY":"SGP4","EPOCH":"2021-09-27T22:00:01.999584","SEMIMAJOR_AXIS":"6735.792","GP_ID":"185669928","APOAPSIS":"360.024","CLASSIFICATION_TYPE":"U","PERIAPSIS":"355.291","SITE":"AFWTR","TLE_LINE1":"1 49150U 21082W   21270.91668981 -.00844605  00000-0 -75960-2 0  9990","RA_OF_ASC_NODE":"88.0776","OBJECT_TYPE":"PAYLOAD","PERIOD":"91.694","COUNTRY_CODE":"US","OBJECT_ID":"2021-082W","ELEMENT_SET_NO":"999","INCLINATION":"70.0001","RCS_SIZE":"LARGE","MEAN_ANOMALY":"259.2290","REV_AT_EPOCH":"250","MEAN_MOTION_DDOT":"0.0000000000000","FILE":"3131463","CENTER_NAME":"EARTH"}];
